CUTE-1 (CO-55)          
1 27844U 03031E   22255.50724309  .00000227  00000+0  12138-3 0  9996
2 27844  98.6810 261.8866 0009283 203.8802 156.1946 14.22491242996288
CUBESAT XI-IV (CO-57)   
1 27848U 03031J   22255.49747653  .00000189  00000+0  10498-3 0  9999
2 27848  98.6854 262.3779 0008918 219.3536 140.6994 14.22043166996086
CUBESAT XI-V            
1 28895U 05043F   22255.84178276  .00001071  00000+0  21100-3 0  9998
2 28895  98.1182  25.9338 0015768 222.9952 137.0019 14.64465749900438
CUTE-1.7+APD II (CO-65) 
1 32785U 08021C   22255.74934588  .00002282  00000+0  24294-3 0  9997
2 32785  97.6664 223.8844 0011271 310.0731  49.9498 14.89845558779488
AAUSAT-II               
1 32788U 08021F   22255.75489551  .00005379  00000+0  45902-3 0  9995
2 32788  97.5399 238.0433 0011170 180.2232 179.8988 14.98059777781501
DELFI-C3 (DO-64)        
1 32789U 08021G   22256.01804195  .00016252  00000+0  85914-3 0  9990
2 32789  97.3350 279.2351 0010449  31.3826 328.8029 15.15506863785280
SEEDS II (CO-66)        
1 32791U 08021J   22256.18177304  .00003034  00000+0  29649-3 0  9993
2 32791  97.6201 229.7066 0011002 256.2756 103.7240 14.93046905780360
SWISSCUBE               
1 35932U 09051B   22255.52938433  .00000650  00000+0  15550-3 0  9999
2 35932  98.5580 113.8607 0008214 133.2288 226.9596 14.56953111688778
BEESAT-1                
1 35933U 09051C   22255.82720451  .00000547  00000+0  13259-3 0  9991
2 35933  98.5516 115.7345 0006267 141.6595 218.5049 14.56958501688899
ITUPSAT1                
1 35935U 09051E   22255.82954187  .00000503  00000+0  12514-3 0  9993
2 35935  98.5617 115.7695 0008485 147.7641 212.4076 14.56060625688595
TISAT 1                 
1 36799U 10035E   22256.11146324  .00002355  00000+0  23097-3 0  9990
2 36799  98.1726 109.9917 0011939 161.6980 198.4670 14.93223286661041
M-CUBED & EXP-1 PRIME   
1 37855U 11061F   22255.73099668  .00019245  00000+0  81143-3 0  9991
2 37855 101.7206  61.1520 0149460 160.7367 199.9584 15.13781568594431
AEROCUBE 4.5A           
1 38767U 12048K   22256.14284950  .00004102  00000+0  28925-3 0  9991
2 38767  64.6656 195.3578 0171058 238.6366 119.7915 14.95379047163899
AEROCUBE 4.5B           
1 38768U 12048L   22256.14145843  .00005356  00000+0  33971-3 0  9998
2 38768  64.6659 147.8683 0156896 234.0265 124.6217 15.00337940164303
STRAND-1                
1 39090U 13009E   22255.78722707  .00000211  00000+0  88593-4 0  9990
2 39090  98.4011  91.6329 0009440  18.6514 341.5016 14.35324156499925
BRITE-AUSTRIA           
1 39091U 13009F   22255.77328028  .00000122  00000+0  57469-4 0  9997
2 39091  98.4029  90.8009 0010960  24.2318 335.9381 14.35298268499954
SOMP                    
1 39134U 13015E   22256.11393339  .00017358  00000+0  57937-3 0  9996
2 39134  64.8601 133.7536 0035263 265.6501  94.0602 15.30575446520647
BEESAT-3                
1 39135U 13015F   22255.76614843  .00015422  00000+0  60247-3 0  9991
2 39135  64.8660 173.1425 0039134 270.6845  88.9801 15.25353840519429
BEESAT-2                
1 39136U 13015G   22255.41348729  .00013479  00000+0  55340-3 0  9999
2 39136  64.8747 182.9868 0021765 295.0021  64.8848 15.24260053519160
NEE-01 PEGASO           
1 39151U 13018B   22256.27439655  .00001398  00000+0  18659-3 0  9992
2 39151  97.9958   1.6662 0016088 334.7691  25.2734 14.81112364506684
ESTCUBE 1               
1 39161U 13021C   22255.98306052  .00001001  00000+0  16304-3 0  9994
2 39161  97.9046 330.9313 0010273 135.2749 224.9306 14.73086046502353
POPACS 1                
1 39268U 13055D   22256.13631160  .00013860  00000+0  34942-3 0  9992
2 39268  80.9967 145.0287 0559867 295.3223  59.0986 14.53089952467495
POPACS 2                
1 39269U 13055E   22255.27347765  .00010663  00000+0  28761-3 0  9992
2 39269  81.0129 205.4111 0643648  92.0510 275.4465 14.33994969462624
POPACS 3                
1 39270U 13055F   22255.67705144  .00006087  00000+0  18391-3 0  9990
2 39270  81.0118 239.4095 0685992 188.1917 170.7596 14.22622392441038
ZACUBE-1 (TSHEPISOSAT)  
1 39417U 13066B   22255.91046220  .00001979  00000+0  24507-3 0  9996
2 39417  97.6454 223.5108 0058926 117.0406 243.6839 14.82579146476088
WNISAT-1                
1 39423U 13066H   22255.92649418  .00000373  00000+0  83100-4 0  9994
2 39423  97.7390 130.9107 0173361 224.2750 134.4475 14.53562190467159
TRITON-1                
1 39427U 13066M   22256.13141799  .00002642  00000+0  41656-3 0  9991
2 39427  97.8144 188.1277 0111233 345.2593  14.5378 14.69169824471848
DELFI-N3XT              
1 39428U 13066N   22255.76262147  .00004464  00000+0  68568-3 0  9996
2 39428  97.8148 186.3847 0116981 359.4997   0.6073 14.69500241471352
GOMX-1                  
1 39430U 13066Q   22256.16214250  .00000991  00000+0  18368-3 0  9990
2 39430  97.8012 158.3300 0149934 127.9481 233.5383 14.60343415469096
CUBEBUG-2 (LO-74)       
1 39440U 13066AA  22255.84048194  .00001439  00000+0  20044-3 0  9999
2 39440  97.7337 209.7686 0077536 207.0191 152.6975 14.77238834473189
NEE-02 KRYSAOR          
1 39441U 13066AB  22255.85170344  .00001043  00000+0  15171-3 0  9990
2 39441  97.7446 206.9126 0079221 221.3676 138.1518 14.75910787472924
FUNCUBE-1 (AO-73)       
1 39444U 13066AE  22255.86206987  .00002838  00000+0  33951-3 0  9996
2 39444  97.6333 225.8833 0057924 105.1514 255.6118 14.83708406474488
UWE-3                   
1 39446U 13066AG  22255.84660063  .00001579  00000+0  20827-3 0  9994
2 39446  97.6941 216.1833 0068714 163.0517 197.3013 14.79795198473386
AEROCUBE 5A             
1 39465U 13072D   22255.82670892  .00062258  00000+0  31337-2 0  9999
2 39465 120.4832 279.9911 0184656  13.4548 347.1357 15.03068450162722
AEROCUBE 5B             
1 39466U 13072E   22256.10734018  .00119374  00000+0  29306-2 0  9998
2 39466 120.4552  19.9348 0114024  32.0387 328.7564 15.33401473164094
BRITE-CA1 (TORONTO)     
1 40020U 14033L   22255.37691065  .00000472  00000+0  87975-4 0  9992
2 40020  97.7897  49.9665 0086367 347.1930  12.7081 14.67126247440402
DUCHIFAT-1              
1 40021U 14033M   22255.39425218  .00003933  00000+0  38043-3 0  9996
2 40021  98.0187 207.2282 0013770 110.8783 249.3911 14.93315328447677
NANOSATC-BR1            
1 40024U 14033Q   22256.13908283  .00004092  00000+0  40776-3 0  9993
2 40024  97.9909 200.8854 0013380 114.3089 245.9528 14.92100053447570
QB50P1                  
1 40025U 14033R   22255.78932217  .00003179  00000+0  32843-3 0  9999
2 40025  97.9634 193.8993 0013384 124.7778 235.4702 14.90809250446777
QB50P2                  
1 40032U 14033Y   22255.78192678  .00002726  00000+0  28670-3 0  9996
2 40032  97.9390 188.9367 0012833 122.6336 237.6122 14.90213247446628
PERSEUS-M2              
1 40037U 14033AD  22256.24584658  .00001024  00000+0  11963-3 0  9993
2 40037  97.8935 177.9693 0014992 144.8278 215.3931 14.87226129446671
PERSEUS-M1              
1 40039U 14033AF  22256.19647830  .00000972  00000+0  11496-3 0  9993
2 40039  97.8828 175.5187 0014858 144.2101 216.0113 14.86831533446553
POLYITAN-1              
1 40042U 14033AJ  22255.80058617  .00003565  00000+0  36664-3 0  9998
2 40042  97.9742 195.2240 0015661 117.8712 242.4094 14.90894493446661
TIGRISAT                
1 40043U 14033AK  22255.46272420  .00001234  00000+0  18524-3 0  9997
2 40043  97.6576  80.0422 0057891 233.8328 125.7518 14.75146442442757
AEROCUBE 6A             
1 40045U 14033AM  22255.75699466  .00001207  00000+0  17599-3 0  9995
2 40045  97.6639  89.3600 0055606 220.0210 139.6898 14.76539905442665
AEROCUBE 6B             
1 40046U 14033AN  22255.84707574  .00002536  00000+0  35825-3 0  9994
2 40046  97.6554  87.8680 0054617 217.5910 142.1478 14.76981553442687
UKUBE-1                 
1 40074U 14037F   22256.11754355  .00001995  00000+0  23706-3 0  9992
2 40074  98.3696 141.3313 0005086  17.9278 342.2119 14.85654698443084
BRITE-PL2 (HEWELIUSZ)   
1 40119U 14049B   22256.26440487  .00001085  00000+0  13252-3 0  9994
2 40119  97.8844 350.9989 0016199 318.4349  41.5633 14.85272867437138
FIREBIRD 4              
1 40378U 15003C   22255.31940489  .00021710  00000+0  60556-3 0  9990
2 40378  99.0860 139.9436 0096860  89.9892 271.2444 15.32121285421714
GRIFEX                  
1 40379U 15003D   22255.84811699  .00013502  00000+0  45918-3 0  9994
2 40379  99.0987 125.5106 0113127 133.3595 227.7131 15.24606379420946
CP10 (EXOCUBE)          
1 40380U 15003E   22255.89051033  .00009586  00000+0  35912-3 0  9999
2 40380  99.1097 117.9396 0121419 158.7524 201.8811 15.20846239420443
TIANWANG 1A (TW-1A)     
1 40928U 15051D   22256.24921389  .00066414  00000+0  62131-3 0  9996
2 40928  97.0319 278.5265 0008356  68.3052 358.7760 15.67012689391953
EXACTVIEW 9             
1 40936U 15052G   22255.20247760  .00001810  00000+0  16060-3 0  9994
2 40936   6.0031 274.3627 0010796 303.8336  56.0764 14.77284142376110
AEROCUBE 5C             
1 40965U 15058B   22255.80270528  .00001077  00000+0  13835-3 0  9998
2 40965  64.7773 186.2543 0181674 171.7337 188.6835 14.75836713161850
AEROCUBE 7              
1 40966U 15058C   22255.76698460  .00001420  00000+0  17477-3 0  9991
2 40966  64.7772 183.3207 0179571 171.3819 189.0444 14.76441111161855
ATHENOXAT 1             
1 41168U 15077C   22256.10367719  .00017457  00000+0  68912-3 0  9993
2 41168  14.9939 159.8480 0008113  30.7508   6.7260 15.22835566373689
GALASSIA                
1 41170U 15077E   22256.00299650  .00015021  00000+0  60747-3 0  9996
2 41170  14.9875 152.2359 0010103  58.7594 301.3718 15.21780775373738
VELOX-II                
1 41171U 15077F   22255.15298570  .00010099  00000+0  46287-3 0  9995
2 41171  14.9905 236.4882 0007762 237.8868 122.0700 15.16789488372855
HORYU-4                 
1 41340U 16012D   22255.87159375  .00004436  00000+0  30890-3 0  9992
2 41340  31.0041 160.6576 0013174 349.2576  10.7778 15.03745465360892
